{
  "norad_id": 52875,
  "name": "STARLINK-4193",
  "history": [
    {
      "epoch": "2026-03-28T19:53:50.573184Z",
      "apogee_km": 540.7193016887468,
      "perigee_km": 538.5891754105724,
      "latitude_deg": 3.4639060066909344e-05,
      "longitude_deg": 163.4955118366783,
      "height_km": 540.5448394915874,
      "semi_major_axis_km": 6917.791238549659,
      "eccentricity": 0.00015396,
      "inclination_deg": 53.2177,
      "raan_deg": 288.2001,
      "arg_perigee_deg": 89.7368,
      "mean_anomaly_deg": 270.3801,
      "mean_motion_rev_day": 15.08869167
    }
  ]
}